{"type": "FeatureCollection", "features": [ {"type": "Feature", "properties": {"norad_id": 66816, "name": "STARLINK-36098", "group": "last-30-days", "lat": 42.56332666656553, "lon": -16.839250376901784, "alt_km": 290.95473331650373, "timestamp": "2025-12-10T23:33:11.624152+00:00", "meta": {"OBJECT_NAME": "STARLINK-36098", "OBJECT_ID": "2025-278AB", "EPOCH": "2025-12-10T12:00:02.999808", "MEAN_MOTION": 15.93464375, "ECCENTRICITY": 0.00018303, "INCLINATION": 42.9989, "RA_OF_ASC_NODE": 265.8959, "ARG_OF_PERICENTER": 263.5051, "MEAN_ANOMALY": 295.8032, "EPHEMERIS_TYPE": 0, "CLASSIFICATION_TYPE": "U", "NORAD_CAT_ID": 66816, "ELEMENT_SET_NO": 999, "REV_AT_EPOCH": 243, "BSTAR": -0.0037436835, "MEAN_MOTION_DOT": -0.01387571, "MEAN_MOTION_DDOT": 0.00055796717}, "tle": {"line1": "1 66816U 25278AB  25344.50003472 -.01387571  55797-3 -37437-2 0  9996", "line2": "2 66816  42.9989 265.8959 0001830 263.5051 295.8032 15.93464375  2433"}}, "geometry": {"type": "Point", "coordinates": [-16.839250376901784, 42.56332666656553]}}, {"type": "Feature", "properties": {"norad_id": 66817, "name": "STARLINK-35995", "group": "last-30-days", "lat": 42.93740858576635, "lon": -10.157894887025323, "alt_km": 290.6304120597879, "timestamp": "2025-12-10T23:33:11.624161+00:00", "meta": {"OBJECT_NAME": "STARLINK-35995", "OBJECT_ID": "2025-278AC", "EPOCH": "2025-12-10T12:00:02.999808", "MEAN_MOTION": 15.93575906, "ECCENTRICITY": 0.00018536, "INCLINATION": 42.9989, "RA_OF_ASC_NODE": 265.8838, "ARG_OF_PERICENTER": 263.3793, "MEAN_ANOMALY": 300.6662, "EPHEMERIS_TYPE": 0, "CLASSIFICATION_TYPE": "U", "NORAD_CAT_ID": 66817, "ELEMENT_SET_NO": 999, "REV_AT_EPOCH": 259, "BSTAR": -0.0037464369, "MEAN_MOTION_DOT": -0.01396721, "MEAN_MOTION_DDOT": 0.00056534847}, "tle": {"line1": "1 66817U 25278AC  25344.50003472 -.01396721  56535-3 -37464-2 0  9995", "line2": "2 66817  42.9989 265.8838 0001853 263.3793 300.6662 15.93575906  2590"}}, "geometry": {"type": "Point", "coordinates": [-10.157894887025323, 42.93740858576635]}}, {"type": "Feature", "properties": {"norad_id": 66818, "name": "STARLINK-35994", "group": "last-30-days", "lat": 42.822564521564324, "lon": -13.075369847705682, "alt_km": 290.7282289523155, "timestamp": "2025-12-10T23:33:11.624170+00:00", "meta": {"OBJECT_NAME": "STARLINK-35994", "OBJECT_ID": "2025-278AD", "EPOCH": "2025-12-10T12:00:02.999808", "MEAN_MOTION": 15.93525447, "ECCENTRICITY": 0.00017772, "INCLINATION": 42.9989, "RA_OF_ASC_NODE": 265.8892, "ARG_OF_PERICENTER": 260.5813, "MEAN_ANOMALY": 301.4081, "EPHEMERIS_TYPE": 0, "CLASSIFICATION_TYPE": "U", "NORAD_CAT_ID": 66818, "ELEMENT_SET_NO": 999, "REV_AT_EPOCH": 259, "BSTAR": -0.0037487648, "MEAN_MOTION_DOT": -0.0139387, "MEAN_MOTION_DDOT": 0.00056295622}, "tle": {"line1": "1 66818U 25278AD  25344.50003472 -.01393870  56296-3 -37488-2 0  9998", "line2": "2 66818  42.9989 265.8892 0001777 260.5813 301.4081 15.93525447  2597"}}, "geometry": {"type": "Point", "coordinates": [-13.075369847705682, 42.822564521564324]}}, {"type": "Feature", "properties": {"norad_id": 66819, "name": "STARLINK-35989", "group": "last-30-days", "lat": 42.97768460411435, "lon": -7.2107459218769225, "alt_km": 290.55374387198844, "timestamp": "2025-12-10T23:33:11.624179+00:00", "meta": {"OBJECT_NAME": "STARLINK-35989", "OBJECT_ID": "2025-278AE", "EPOCH": "2025-12-10T12:00:02.999808", "MEAN_MOTION": 15.93631454, "ECCENTRICITY": 0.00019265, "INCLINATION": 42.9989, "RA_OF_ASC_NODE": 265.8785, "ARG_OF_PERICENTER": 261.663, "MEAN_ANOMALY": 304.4577, "EPHEMERIS_TYPE": 0, "CLASSIFICATION_TYPE": "U", "NORAD_CAT_ID": 66819, "ELEMENT_SET_NO": 999, "REV_AT_EPOCH": 259, "BSTAR": -0.0037744127, "MEAN_MOTION_DOT": -0.01411151, "MEAN_MOTION_DDOT": 0.00057641679}, "tle": {"line1": "1 66819U 25278AE  25344.50003472 -.01411151  57642-3 -37744-2 0  9993", "line2": "2 66819  42.9989 265.8785 0001926 261.6630 304.4577 15.93631454  2593"}}, "geometry": {"type": "Point", "coordinates": [-7.2107459218769225, 42.97768460411435]}}, {"type": "Feature", "properties": {"norad_id": 66820, "name": "KOMPSAT-7", "group": "last-30-days", "lat": -41.9777148826238, "lon": 103.94548366221171, "alt_km": 571.9705545417974, "timestamp": "2025-12-10T23:33:11.624189+00:00", "meta": {"OBJECT_NAME": "KOMPSAT-7", "OBJECT_ID": "2025-279A", "EPOCH": "2025-12-10T08:08:20.375808", "MEAN_MOTION": 14.98383323, "ECCENTRICITY": 0.00094465, "INCLINATION": 97.6405, "RA_OF_ASC_NODE": 290.2534, "ARG_OF_PERICENTER": 228.7965, "MEAN_ANOMALY": 131.2444, "EPHEMERIS_TYPE": 0, "CLASSIFICATION_TYPE": "U", "NORAD_CAT_ID": 66820, "ELEMENT_SET_NO": 999, "REV_AT_EPOCH": 129, "BSTAR": 0.00035620703, "MEAN_MOTION_DOT": 4.194e-05, "MEAN_MOTION_DDOT": 0}, "tle": {"line1": "1 66820U 25279A   25344.33912472  .00004194  00000+0  35621-3 0  9993", "line2": "2 66820  97.6405 290.2534 0009446 228.7965 131.2444 14.98383323  1297"}}, "geometry": {"type": "Point", "coordinates": [103.94548366221171, -41.9777148826238]}}, {"type": "Feature", "properties": {"norad_id": 66877, "name": "ZQ-3 R/B", "group": "last-30-days", "lat": 56.80584530566391, "lon": 148.69483309384592, "alt_km": 1041.5369465929261, "timestamp": "2025-12-10T23:33:11.624200+00:00", "meta": {"OBJECT_NAME": "ZQ-3 R/B", "OBJECT_ID": "2025-282A", "EPOCH": "2025-12-10T13:11:34.975104", "MEAN_MOTION": 14.53151085, "ECCENTRICITY": 0.08054604, "INCLINATION": 56.9528, "RA_OF_ASC_NODE": 66.0239, "ARG_OF_PERICENTER": 216.1667, "MEAN_ANOMALY": 138.224, "EPHEMERIS_TYPE": 0, "CLASSIFICATION_TYPE": "U", "NORAD_CAT_ID": 66877, "ELEMENT_SET_NO": 999, "REV_AT_EPOCH": 107, "BSTAR": 0.00026050706, "MEAN_MOTION_DOT": 0.01257378, "MEAN_MOTION_DDOT": 7.372284e-06}, "tle": {"line1": "1 66877U 25282A   25344.54971036  .01257378  73723-5  26051-3 0  9993", "line2": "2 66877  56.9528  66.0239 0805460 216.1667 138.2240 14.53151085  1070"}}, "geometry": {"type": "Point", "coordinates": [148.69483309384592, 56.80584530566391]}}, {"type": "Feature", "properties": {"norad_id": 66906, "name": "1998-067XS", "group": "last-30-days", "lat": -32.220734294783384, "lon": 121.17976276435202, "alt_km": 420.7413117022761, "timestamp": "2025-12-10T23:33:11.624210+00:00", "meta": {"OBJECT_NAME": "1998-067XS", "OBJECT_ID": "1998-067XS", "EPOCH": "2025-12-10T00:31:58.659744", "MEAN_MOTION": 15.50350034, "ECCENTRICITY": 0.0003912, "INCLINATION": 51.6303, "RA_OF_ASC_NODE": 155.8936, "ARG_OF_PERICENTER": 190.7132, "MEAN_ANOMALY": 169.3774, "EPHEMERIS_TYPE": 0, "CLASSIFICATION_TYPE": "U", "NORAD_CAT_ID": 66906, "ELEMENT_SET_NO": 999, "REV_AT_EPOCH": 119, "BSTAR": 0.00063423893, "MEAN_MOTION_DOT": 0.00036365, "MEAN_MOTION_DDOT": 0}, "tle": {"line1": "1 66906U 98067XS  25344.02220671  .00036365  00000+0  63424-3 0  9999", "line2": "2 66906  51.6303 155.8936 0003912 190.7132 169.3774 15.50350034  1196"}}, "geometry": {"type": "Point", "coordinates": [121.17976276435202, -32.220734294783384]}}, {"type": "Feature", "properties": {"norad_id": 66907, "name": "1998-067XT", "group": "last-30-days", "lat": -25.060580057625945, "lon": 129.36951597838683, "alt_km": 418.1371417679575, "timestamp": "2025-12-10T23:33:11.624219+00:00", "meta": {"OBJECT_NAME": "1998-067XT", "OBJECT_ID": "1998-067XT", "EPOCH": "2025-12-09T12:07:37.114752", "MEAN_MOTION": 15.50864429, "ECCENTRICITY": 0.00048036, "INCLINATION": 51.6307, "RA_OF_ASC_NODE": 158.4423, "ARG_OF_PERICENTER": 208.5081, "MEAN_ANOMALY": 151.5646, "EPHEMERIS_TYPE": 0, "CLASSIFICATION_TYPE": "U", "NORAD_CAT_ID": 66907, "ELEMENT_SET_NO": 999, "REV_AT_EPOCH": 111, "BSTAR": 0.0012921241, "MEAN_MOTION_DOT": 0.00076342, "MEAN_MOTION_DDOT": 0}, "tle": {"line1": "1 66907U 98067XT  25343.50529068  .00076342  00000+0  12921-2 0  9998", "line2": "2 66907  51.6307 158.4423 0004803 208.5081 151.5646 15.50864429  1113"}}, "geometry": {"type": "Point", "coordinates": [129.36951597838683, -25.060580057625945]}}, {"type": "Feature", "properties": {"norad_id": 66908, "name": "1998-067XU", "group": "last-30-days", "lat": -23.990661159670626, "lon": 130.46675452297083, "alt_km": 417.86372042924086, "timestamp": "2025-12-10T23:33:11.624229+00:00", "meta": {"OBJECT_NAME": "1998-067XU", "OBJECT_ID": "1998-067XU", "EPOCH": "2025-12-10T14:24:36.801216", "MEAN_MOTION": 15.51106152, "ECCENTRICITY": 0.00048077, "INCLINATION": 51.6304, "RA_OF_ASC_NODE": 153.0048, "ARG_OF_PERICENTER": 213.3115, "MEAN_ANOMALY": 146.7573, "EPHEMERIS_TYPE": 0, "CLASSIFICATION_TYPE": "U", "NORAD_CAT_ID": 66908, "ELEMENT_SET_NO": 999, "REV_AT_EPOCH": 128, "BSTAR": 0.0015174275, "MEAN_MOTION_DOT": 0.00090678, "MEAN_MOTION_DDOT": 0}, "tle": {"line1": "1 66908U 98067XU  25344.60042594  .00090678  00000+0  15174-2 0  9996", "line2": "2 66908  51.6304 153.0048 0004807 213.3115 146.7573 15.51106152  1287"}}, "geometry": {"type": "Point", "coordinates": [130.46675452297083, -23.990661159670626]}}, {"type": "Feature", "properties": {"norad_id": 66909, "name": "SILVERSAT", "group": "last-30-days", "lat": -22.956891729509604, "lon": 131.50091557946766, "alt_km": 417.39404718123114, "timestamp": "2025-12-10T23:33:11.624238+00:00", "meta": {"OBJECT_NAME": "SILVERSAT", "OBJECT_ID": "1998-067XV", "EPOCH": "2025-12-10T14:24:17.076960", "MEAN_MOTION": 15.51201749, "ECCENTRICITY": 0.00046642, "INCLINATION": 51.6305, "RA_OF_ASC_NODE": 153.0034, "ARG_OF_PERICENTER": 216.0058, "MEAN_ANOMALY": 144.0618, "EPHEMERIS_TYPE": 0, "CLASSIFICATION_TYPE": "U", "NORAD_CAT_ID": 66909, "ELEMENT_SET_NO": 999, "REV_AT_EPOCH": 128, "BSTAR": 0.0015461783, "MEAN_MOTION_DOT": 0.00092744, "MEAN_MOTION_DDOT": 0}, "tle": {"line1": "1 66909U 98067XV  25344.60019765  .00092744  00000+0  15462-2 0  9997", "line2": "2 66909  51.6305 153.0034 0004664 216.0058 144.0618 15.51201749  1280"}}, "geometry": {"type": "Point", "coordinates": [131.50091557946766, -22.956891729509604]}}]}